{
  "type": "FeatureCollection",
  "features": [
    {
      "type": "Feature",
      "properties": {
        "norad_id": 31236,
        "name": "FENGYUN 1C DEB",
        "group": "fengyun-1c-debris",
        "lat": -36.230728247662555,
        "lon": -58.14254495674921,
        "alt_km": 992.9230133398723,
        "timestamp": "2025-12-05T16:54:14.928757+00:00",
        "meta_object_name": "FENGYUN 1C DEB",
        "meta_object_id": "1999-025BLS",
        "meta_epoch": "2025-12-03T07:53:25.598400",
        "meta_mean_motion": 13.85599249,
        "meta_eccentricity": 0.0314237,
        "meta_inclination": 98.5451,
        "meta_ra_of_asc_node": 293.3621,
        "meta_arg_of_pericenter": 72.3659,
        "meta_mean_anomaly": 291.1553,
        "meta_ephemeris_type": 0,
        "meta_classification_type": "U",
        "meta_norad_cat_id": 31236,
        "meta_element_set_no": 999,
        "meta_rev_at_epoch": 60894,
        "meta_bstar": 0.0055596,
        "meta_mean_motion_dot": 9.321e-05,
        "meta_mean_motion_ddot": 0,
        "tle_line1": "1 31236U 99025BLS 25337.32876850  .00009321  00000+0  55596-2 0  9995",
        "tle_line2": "2 31236  98.5451 293.3621 0314237  72.3659 291.1553 13.85599249608945"
      },
      "geometry": {
        "type": "Point",
        "coordinates": [
          -58.14254495674921,
          -36.230728247662555
        ]
      }
    },
    {
      "type": "Feature",
      "properties": {
        "norad_id": 31237,
        "name": "FENGYUN 1C DEB",
        "group": "fengyun-1c-debris",
        "lat": -1.8549122222704413,
        "lon": 158.4781534199445,
        "alt_km": 853.8331277090028,
        "timestamp": "2025-12-05T16:54:14.928766+00:00",
        "meta_object_name": "FENGYUN 1C DEB",
        "meta_object_id": "1999-025BLT",
        "meta_epoch": "2025-12-04T19:55:36.975648",
        "meta_mean_motion": 14.31348292,
        "meta_eccentricity": 0.00894238,
        "meta_inclination": 98.4528,
        "meta_ra_of_asc_node": 337.9034,
        "meta_arg_of_pericenter": 12.3521,
        "meta_mean_anomaly": 347.9826,
        "meta_ephemeris_type": 0,
        "meta_classification_type": "U",
        "meta_norad_cat_id": 31237,
        "meta_element_set_no": 999,
        "meta_rev_at_epoch": 97153,
        "meta_bstar": 0.0012167802,
        "meta_mean_motion_dot": 3.326e-05,
        "meta_mean_motion_ddot": 0,
        "tle_line1": "1 31237U 99025BLT 25338.83028907  .00003326  00000+0  12168-2 0  9992",
        "tle_line2": "2 31237  98.4528 337.9034 0089423  12.3521 347.9826 14.31348292971534"
      },
      "geometry": {
        "type": "Point",
        "coordinates": [
          158.4781534199445,
          -1.8549122222704413
        ]
      }
    },
    {
      "type": "Feature",
      "properties": {
        "norad_id": 31239,
        "name": "FENGYUN 1C DEB",
        "group": "fengyun-1c-debris",
        "lat": -18.69723153018925,
        "lon": 151.84381084745823,
        "alt_km": 831.4381072005854,
        "timestamp": "2025-12-05T16:54:14.928775+00:00",
        "meta_object_name": "FENGYUN 1C DEB",
        "meta_object_id": "1999-025BLV",
        "meta_epoch": "2025-12-04T11:43:58.692000",
        "meta_mean_motion": 14.0984529,
        "meta_eccentricity": 0.0048959,
        "meta_inclination": 98.7582,
        "meta_ra_of_asc_node": 333.6516,
        "meta_arg_of_pericenter": 221.6957,
        "meta_mean_anomaly": 291.7078,
        "meta_ephemeris_type": 0,
        "meta_classification_type": "U",
        "meta_norad_cat_id": 31239,
        "meta_element_set_no": 999,
        "meta_rev_at_epoch": 95895,
        "meta_bstar": 0.00059713,
        "meta_mean_motion_dot": 1.019e-05,
        "meta_mean_motion_ddot": 0,
        "tle_line1": "1 31239U 99025BLV 25338.48887375  .00001019  00000+0  59713-3 0  9992",
        "tle_line2": "2 31239  98.7582 333.6516 0048959 221.6957 291.7078 14.09845290958955"
      },
      "geometry": {
        "type": "Point",
        "coordinates": [
          151.84381084745823,
          -18.69723153018925
        ]
      }
    },
    {
      "type": "Feature",
      "properties": {
        "norad_id": 31241,
        "name": "FENGYUN 1C DEB",
        "group": "fengyun-1c-debris",
        "lat": -22.296236831962503,
        "lon": -57.833054046101,
        "alt_km": 720.6704325969895,
        "timestamp": "2025-12-05T16:54:14.928784+00:00",
        "meta_object_name": "FENGYUN 1C DEB",
        "meta_object_id": "1999-025BLX",
        "meta_epoch": "2025-12-04T16:35:45.444480",
        "meta_mean_motion": 14.38642671,
        "meta_eccentricity": 0.00666643,
        "meta_inclination": 99.2339,
        "meta_ra_of_asc_node": 124.9029,
        "meta_arg_of_pericenter": 204.4614,
        "meta_mean_anomaly": 155.3403,
        "meta_ephemeris_type": 0,
        "meta_classification_type": "U",
        "meta_norad_cat_id": 31241,
        "meta_element_set_no": 999,
        "meta_rev_at_epoch": 97575,
        "meta_bstar": 0.00143606,
        "meta_mean_motion_dot": 4.467e-05,
        "meta_mean_motion_ddot": 0,
        "tle_line1": "1 31241U 99025BLX 25338.69149820  .00004467  00000+0  14361-2 0  9993",
        "tle_line2": "2 31241  99.2339 124.9029 0066664 204.4614 155.3403 14.38642671975750"
      },
      "geometry": {
        "type": "Point",
        "coordinates": [
          -57.833054046101,
          -22.296236831962503
        ]
      }
    },
    {
      "type": "Feature",
      "properties": {
        "norad_id": 31243,
        "name": "FENGYUN 1C DEB",
        "group": "fengyun-1c-debris",
        "lat": -23.98508926522159,
        "lon": -163.73876660997007,
        "alt_km": 828.8648502762371,
        "timestamp": "2025-12-05T16:54:14.928793+00:00",
        "meta_object_name": "FENGYUN 1C DEB",
        "meta_object_id": "1999-025BLZ",
        "meta_epoch": "2025-12-02T09:26:08.464128",
        "meta_mean_motion": 14.07125765,
        "meta_eccentricity": 0.00658053,
        "meta_inclination": 98.7507,
        "meta_ra_of_asc_node": 16.9856,
        "meta_arg_of_pericenter": 196.9794,
        "meta_mean_anomaly": 162.9174,
        "meta_ephemeris_type": 0,
        "meta_classification_type": "U",
        "meta_norad_cat_id": 31243,
        "meta_element_set_no": 999,
        "meta_rev_at_epoch": 69162,
        "meta_bstar": 0.0010846711,
        "meta_mean_motion_dot": 1.809e-05,
        "meta_mean_motion_ddot": 0,
        "tle_line1": "1 31243U 99025BLZ 25336.39315352  .00001809  00000+0  10847-2 0  9997",
        "tle_line2": "2 31243  98.7507  16.9856 0065805 196.9794 162.9174 14.07125765691627"
      },
      "geometry": {
        "type": "Point",
        "coordinates": [
          -163.73876660997007,
          -23.98508926522159
        ]
      }
    },
    {
      "type": "Feature",
      "properties": {
        "norad_id": 31244,
        "name": "FENGYUN 1C DEB",
        "group": "fengyun-1c-debris",
        "lat": -69.34450687529659,
        "lon": -161.62839126540575,
        "alt_km": 838.4428844768145,
        "timestamp": "2025-12-05T16:54:14.928802+00:00",
        "meta_object_name": "FENGYUN 1C DEB",
        "meta_object_id": "1999-025BMA",
        "meta_epoch": "2025-11-29T11:08:59.157312",
        "meta_mean_motion": 14.06218558,
        "meta_eccentricity": 0.01023846,
        "meta_inclination": 99.0353,
        "meta_ra_of_asc_node": 37.1115,
        "meta_arg_of_pericenter": 211.8178,
        "meta_mean_anomaly": 147.6779,
        "meta_ephemeris_type": 0,
        "meta_classification_type": "U",
        "meta_norad_cat_id": 31244,
        "meta_element_set_no": 999,
        "meta_rev_at_epoch": 57453,
        "meta_bstar": 0.00052742349,
        "meta_mean_motion_dot": 8.65e-06,
        "meta_mean_motion_ddot": 0,
        "tle_line1": "1 31244U 99025BMA 25333.46457358  .00000865  00000+0  52742-3 0  9998",
        "tle_line2": "2 31244  99.0353  37.1115 0102384 211.8178 147.6779 14.06218558574534"
      },
      "geometry": {
        "type": "Point",
        "coordinates": [
          -161.62839126540575,
          -69.34450687529659
        ]
      }
    },
    {
      "type": "Feature",
      "properties": {
        "norad_id": 31247,
        "name": "FENGYUN 1C DEB",
        "group": "fengyun-1c-debris",
        "lat": -30.722101446709907,
        "lon": 42.028041767713866,
        "alt_km": 909.0609350962986,
        "timestamp": "2025-12-05T16:54:14.928811+00:00",
        "meta_object_name": "FENGYUN 1C DEB",
        "meta_object_id": "1999-025BMD",
        "meta_epoch": "2025-12-04T16:15:04.494240",
        "meta_mean_motion": 14.05083415,
        "meta_eccentricity": 0.0058704,
        "meta_inclination": 99.3657,
        "meta_ra_of_asc_node": 226.5966,
        "meta_arg_of_pericenter": 84.4235,
        "meta_mean_anomaly": 333.0455,
        "meta_ephemeris_type": 0,
        "meta_classification_type": "U",
        "meta_norad_cat_id": 31247,
        "meta_element_set_no": 999,
        "meta_rev_at_epoch": 95408,
        "meta_bstar": 0.0019039,
        "meta_mean_motion_dot": 3.071e-05,
        "meta_mean_motion_ddot": 0,
        "tle_line1": "1 31247U 99025BMD 25338.67713535  .00003071  00000+0  19039-2 0  9994",
        "tle_line2": "2 31247  99.3657 226.5966 0058704  84.4235 333.0455 14.05083415954084"
      },
      "geometry": {
        "type": "Point",
        "coordinates": [
          42.028041767713866,
          -30.722101446709907
        ]
      }
    }
  ]
}